CCSDS_OMM_VERS = 2.0
CREATION_DATE  = 
ORIGINATOR     = 

OBJECT_NAME    = UNKNOWN
OBJECT_ID      = 
CENTER_NAME    = EARTH
REF_FRAME      = TEME
TIME_SYSTEM    = UTC
MEAN_ELEMENT_THEORY = SGP/SGP4

EPOCH          = 2026-03-15T09:50:53.254176
MEAN_MOTION    = 13.88289181
ECCENTRICITY   = .0062698
INCLINATION    = 82.8054
RA_OF_ASC_NODE = 317.1309
ARG_OF_PERICENTER = 99.5814
MEAN_ANOMALY   = 23.5914

EPHEMERIS_TYPE = 0
CLASSIFICATION_TYPE = U
NORAD_CAT_ID   = 81865
ELEMENT_SET_NO = 999
REV_AT_EPOCH   = 62140
BSTAR          = .88862E-3
MEAN_MOTION_DOT = .1096E-4
MEAN_MOTION_DDOT = 0

CCSDS_OMM_VERS = 2.0
CREATION_DATE  = 
ORIGINATOR     = 

OBJECT_NAME    = UNKNOWN
OBJECT_ID      = 
CENTER_NAME    = EARTH
REF_FRAME      = TEME
TIME_SYSTEM    = UTC
MEAN_ELEMENT_THEORY = SGP/SGP4

EPOCH          = 2026-03-15T10:43:32.145312
MEAN_MOTION    = 13.76926533
ECCENTRICITY   = .0021745
INCLINATION    = 100.0583
RA_OF_ASC_NODE = 67.9175
ARG_OF_PERICENTER = 33.4248
MEAN_ANOMALY   = 326.8268

EPHEMERIS_TYPE = 0
CLASSIFICATION_TYPE = U
NORAD_CAT_ID   = 81893
ELEMENT_SET_NO = 999
REV_AT_EPOCH   = 61683
BSTAR          = .11387E-2
MEAN_MOTION_DOT = .1075E-4
MEAN_MOTION_DDOT = 0

CCSDS_OMM_VERS = 2.0
CREATION_DATE  = 
ORIGINATOR     = 

OBJECT_NAME    = UNKNOWN
OBJECT_ID      = 
CENTER_NAME    = EARTH
REF_FRAME      = TEME
TIME_SYSTEM    = UTC
MEAN_ELEMENT_THEORY = SGP/SGP4

EPOCH          = 2026-03-14T18:52:24.011328
MEAN_MOTION    = 13.20497563
ECCENTRICITY   = .0169209
INCLINATION    = 102.4112
RA_OF_ASC_NODE = 197.1810
ARG_OF_PERICENTER = 19.7076
MEAN_ANOMALY   = 341.0469

EPHEMERIS_TYPE = 0
CLASSIFICATION_TYPE = U
NORAD_CAT_ID   = 81899
ELEMENT_SET_NO = 999
REV_AT_EPOCH   = 59113
BSTAR          = .46127E-2
MEAN_MOTION_DOT = .1957E-4
MEAN_MOTION_DDOT = 0

CCSDS_OMM_VERS = 2.0
CREATION_DATE  = 
ORIGINATOR     = 

OBJECT_NAME    = UNKNOWN
OBJECT_ID      = 
CENTER_NAME    = EARTH
REF_FRAME      = TEME
TIME_SYSTEM    = UTC
MEAN_ELEMENT_THEORY = SGP/SGP4

EPOCH          = 2026-03-17T14:34:10.360704
MEAN_MOTION    = 13.15481724
ECCENTRICITY   = .0843365
INCLINATION    = 65.7081
RA_OF_ASC_NODE = 197.7430
ARG_OF_PERICENTER = 73.4646
MEAN_ANOMALY   = 295.7253

EPHEMERIS_TYPE = 0
CLASSIFICATION_TYPE = U
NORAD_CAT_ID   = 81921
ELEMENT_SET_NO = 999
REV_AT_EPOCH   = 3826
BSTAR          = .21159E-3
MEAN_MOTION_DOT = .441E-5
MEAN_MOTION_DDOT = 0

CCSDS_OMM_VERS = 2.0
CREATION_DATE  = 
ORIGINATOR     = 

OBJECT_NAME    = UNKNOWN
OBJECT_ID      = 
CENTER_NAME    = EARTH
REF_FRAME      = TEME
TIME_SYSTEM    = UTC
MEAN_ELEMENT_THEORY = SGP/SGP4

EPOCH          = 2026-03-15T16:50:29.656032
MEAN_MOTION    = 12.42646033
ECCENTRICITY   = .067818
INCLINATION    = 66.4227
RA_OF_ASC_NODE = 333.8098
ARG_OF_PERICENTER = 306.6064
MEAN_ANOMALY   = 74.3260

EPHEMERIS_TYPE = 0
CLASSIFICATION_TYPE = U
NORAD_CAT_ID   = 81946
ELEMENT_SET_NO = 999
REV_AT_EPOCH   = 55943
BSTAR          = .37121E-3
MEAN_MOTION_DOT = .61E-6
MEAN_MOTION_DDOT = 0

CCSDS_OMM_VERS = 2.0
CREATION_DATE  = 
ORIGINATOR     = 

OBJECT_NAME    = UNKNOWN
OBJECT_ID      = 
CENTER_NAME    = EARTH
REF_FRAME      = TEME
TIME_SYSTEM    = UTC
MEAN_ELEMENT_THEORY = SGP/SGP4

EPOCH          = 2026-03-17T12:57:44.884512
MEAN_MOTION    = 13.95864729
ECCENTRICITY   = .0034449
INCLINATION    = 66.5863
RA_OF_ASC_NODE = 23.3345
ARG_OF_PERICENTER = 12.0194
MEAN_ANOMALY   = 348.1700

EPHEMERIS_TYPE = 0
CLASSIFICATION_TYPE = U
NORAD_CAT_ID   = 81964
ELEMENT_SET_NO = 999
REV_AT_EPOCH   = 62727
BSTAR          = .22972E-3
MEAN_MOTION_DOT = .236E-5
MEAN_MOTION_DDOT = 0

CCSDS_OMM_VERS = 2.0
CREATION_DATE  = 
ORIGINATOR     = 

OBJECT_NAME    = UNKNOWN
OBJECT_ID      = 
CENTER_NAME    = EARTH
REF_FRAME      = TEME
TIME_SYSTEM    = UTC
MEAN_ELEMENT_THEORY = SGP/SGP4

EPOCH          = 2026-03-17T02:37:29.654400
MEAN_MOTION    = 15.13453162
ECCENTRICITY   = .0005268
INCLINATION    = 86.6814
RA_OF_ASC_NODE = 112.4060
ARG_OF_PERICENTER = 151.9242
MEAN_ANOMALY   = 208.2283

EPHEMERIS_TYPE = 0
CLASSIFICATION_TYPE = U
NORAD_CAT_ID   = 81969
ELEMENT_SET_NO = 999
REV_AT_EPOCH   = 45443
BSTAR          = .41709E-3
MEAN_MOTION_DOT = .7488E-4
MEAN_MOTION_DDOT = 0

CCSDS_OMM_VERS = 2.0
CREATION_DATE  = 
ORIGINATOR     = 

OBJECT_NAME    = UNKNOWN
OBJECT_ID      = 
CENTER_NAME    = EARTH
REF_FRAME      = TEME
TIME_SYSTEM    = UTC
MEAN_ELEMENT_THEORY = SGP/SGP4

EPOCH          = 2026-03-15T20:28:06.824928
MEAN_MOTION    = 14.05120397
ECCENTRICITY   = .0515588
INCLINATION    = 65.7455
RA_OF_ASC_NODE = 240.1385
ARG_OF_PERICENTER = 251.2947
MEAN_ANOMALY   = 103.1521

EPHEMERIS_TYPE = 0
CLASSIFICATION_TYPE = U
NORAD_CAT_ID   = 81995
ELEMENT_SET_NO = 999
REV_AT_EPOCH   = 61730
BSTAR          = .9416E-3
MEAN_MOTION_DOT = .5044E-4
MEAN_MOTION_DDOT = 0

CCSDS_OMM_VERS = 2.0
CREATION_DATE  = 
ORIGINATOR     = 

OBJECT_NAME    = UNKNOWN
OBJECT_ID      = 
CENTER_NAME    = EARTH
REF_FRAME      = TEME
TIME_SYSTEM    = UTC
MEAN_ELEMENT_THEORY = SGP/SGP4

EPOCH          = 2026-03-16T20:33:18.932832
MEAN_MOTION    = 14.33164002
ECCENTRICITY   = .0230655
INCLINATION    = 97.9386
RA_OF_ASC_NODE = 221.7492
ARG_OF_PERICENTER = 160.1395
MEAN_ANOMALY   = 200.8957

EPHEMERIS_TYPE = 0
CLASSIFICATION_TYPE = U
NORAD_CAT_ID   = 82043
ELEMENT_SET_NO = 999
REV_AT_EPOCH   = 58732
BSTAR          = .99649E-3
MEAN_MOTION_DOT = .3639E-4
MEAN_MOTION_DDOT = 0

CCSDS_OMM_VERS = 2.0
CREATION_DATE  = 
ORIGINATOR     = 

OBJECT_NAME    = UNKNOWN
OBJECT_ID      = 
CENTER_NAME    = EARTH
REF_FRAME      = TEME
TIME_SYSTEM    = UTC
MEAN_ELEMENT_THEORY = SGP/SGP4

EPOCH          = 2026-03-16T11:17:07.152288
MEAN_MOTION    = 14.39508886
ECCENTRICITY   = .020516
INCLINATION    = 97.7386
RA_OF_ASC_NODE = 147.6568
ARG_OF_PERICENTER = 1.8648
MEAN_ANOMALY   = 358.3261

EPHEMERIS_TYPE = 0
CLASSIFICATION_TYPE = U
NORAD_CAT_ID   = 82073
ELEMENT_SET_NO = 999
REV_AT_EPOCH   = 58860
BSTAR          = .48835E-3
MEAN_MOTION_DOT = .1905E-4
MEAN_MOTION_DDOT = 0

CCSDS_OMM_VERS = 2.0
CREATION_DATE  = 
ORIGINATOR     = 

OBJECT_NAME    = UNKNOWN
OBJECT_ID      = 
CENTER_NAME    = EARTH
REF_FRAME      = TEME
TIME_SYSTEM    = UTC
MEAN_ELEMENT_THEORY = SGP/SGP4

EPOCH          = 2026-03-15T15:39:53.692992
MEAN_MOTION    = 14.15947691
ECCENTRICITY   = .0084537
INCLINATION    = 99.0119
RA_OF_ASC_NODE = 148.6336
ARG_OF_PERICENTER = 139.7305
MEAN_ANOMALY   = 221.0171

EPHEMERIS_TYPE = 0
CLASSIFICATION_TYPE = U
NORAD_CAT_ID   = 82139
ELEMENT_SET_NO = 999
REV_AT_EPOCH   = 49326
BSTAR          = .11745E-2
MEAN_MOTION_DOT = .2351E-4
MEAN_MOTION_DDOT = 0

CCSDS_OMM_VERS = 2.0
CREATION_DATE  = 
ORIGINATOR     = 

OBJECT_NAME    = UNKNOWN
OBJECT_ID      = 
CENTER_NAME    = EARTH
REF_FRAME      = TEME
TIME_SYSTEM    = UTC
MEAN_ELEMENT_THEORY = SGP/SGP4

EPOCH          = 2026-03-17T02:04:35.061888
MEAN_MOTION    = 13.54403321
ECCENTRICITY   = .0061671
INCLINATION    = 100.4715
RA_OF_ASC_NODE = 11.0224
ARG_OF_PERICENTER = 0.4422
MEAN_ANOMALY   = 359.6756

EPHEMERIS_TYPE = 0
CLASSIFICATION_TYPE = U
NORAD_CAT_ID   = 82162
ELEMENT_SET_NO = 999
REV_AT_EPOCH   = 51707
BSTAR          = .39825E-2
MEAN_MOTION_DOT = .2701E-4
MEAN_MOTION_DDOT = 0

